{"fetched_at":"2026-03-30T06:02:59Z","count":15439,"tles":[{"name":"STARLINK-31954","line1":"1 60102U 24117M   26087.89161032 -.00000688  00000+0 -11110-4 0  9998","line2":"2 60102  53.1593 308.1266 0000718  48.2361 311.8701 15.30190456 99826","category":"Starlink"}]}