{
  "norad_id": 60102,
  "name": "STARLINK-31954",
  "history": [
    {
      "epoch": "2026-03-28T21:23:55.131648",
      "apogee_km": 475.7361186924154,
      "perigee_km": 474.7510137698264,
      "latitude_deg": 31.305213202909673,
      "longitude_deg": -84.20540928002447,
      "semi_major_axis_km": 6853.380566231121,
      "eccentricity": 7.187e-05,
      "inclination_deg": 53.1593,
      "raan_deg": 308.1266,
      "arg_perigee_deg": 48.2361,
      "mean_anomaly_deg": 311.8701,
      "mean_motion_rev_day": 15.30190456
    }
  ]
}